GSAT0213 (GALILEO 17)   
1 41861U 16069C   26064.72771558  .00000008  00000+0  00000+0 0  9998
2 41861  55.4302 103.9512 0005295 293.0089  67.0145  1.70474927 57752
GSAT0214 (GALILEO 18)   
1 41862U 16069D   26065.46034919  .00000006  00000+0  00000+0 0  9992
2 41862  55.4293 103.9236 0004341 297.3479  62.6840  1.70474815 57890
SES-15 (WAAS/PRN 133)   
1 42709U 17026A   26066.52336347  .00000058  00000+0  00000+0 0  9992
2 42709   0.0427 318.1999 0001016  33.8962 232.3748  1.00274261  6419
QZS-2 (QZSS/PRN 194)    
1 42738U 17028A   26065.89280925 -.00000162  00000+0  00000+0 0  9992
2 42738  39.5865 244.6431 0745331 270.3514 112.5324  1.00261347  6605
QZS-3 (QZSS/PRN 199)    
1 42917U 17048A   26066.60268897 -.00000349  00000+0  00000+0 0  9994
2 42917   0.0667 211.2342 0002300 151.1691 146.8863  1.00274879 31242
COSMOS 2522 (752)       
1 42939U 17055A   26064.88589677  .00000019  00000+0  00000+0 0  9999
2 42939  64.0788 195.3973 0007310 227.5424 132.3669  2.13101691 65775
QZS-4 (QZSS/PRN 195)    
1 42965U 17062A   26064.74126170 -.00000341  00000+0  00000+0 0  9995
2 42965  40.1722 344.8064 0748494 269.9150 316.0784  1.00280691 30763
BEIDOU-3 M1 (C19)       
1 43001U 17069A   26063.96368704 -.00000029  00000+0  00000+0 0  9991
2 43001  56.6017  66.5157 0012381 309.6653  50.2473  1.86231070 56664
BEIDOU-3 M2 (C20)       
1 43002U 17069B   26066.58695443 -.00000034  00000+0  00000+0 0  9992
2 43002  56.6029  66.4651 0009792 329.2108  30.7460  1.86230719 56704
GSAT0215 (GALILEO 19)   
1 43055U 17079A   26062.43085966  .00000010  00000+0  00000+0 0  9997
2 43055  55.1080 224.4135 0000631  13.1955 346.7446  1.70474475 51181
GSAT0216 (GALILEO 20)   
1 43056U 17079B   26065.65499186  .00000022  00000+0  00000+0 0  9991
2 43056  55.1075 224.3250 0001707 318.8981  41.0306  1.70474699 51258
GSAT0217 (GALILEO 21)   
1 43057U 17079C   26065.28916355  .00000020  00000+0  00000+0 0  9991
2 43057  55.1073 224.3328 0002074 355.7864   4.1520  1.70474591 51238
GSAT0218 (GALILEO 22)   
1 43058U 17079D   26064.92262595  .00000018  00000+0  00000+0 0  9999
2 43058  55.1041 224.3407 0001921 303.2220  56.6985  1.70474575 51257
BEIDOU-3 M7 (C27)       
1 43107U 18003A   26065.25503818 -.00000069  00000+0  00000+0 0  9992
2 43107  54.4191 305.9051 0004744  71.1404 288.9649  1.86232356 55439
BEIDOU-3 M8 (C28)       
1 43108U 18003B   26065.73756449 -.00000069  00000+0  00000+0 0  9996
2 43108  54.4113 305.8708 0002951 295.0434  64.9788  1.86230889 55457
BEIDOU-3 M4 (C22)       
1 43207U 18018A   26065.64280483 -.00000035  00000+0  00000+0 0  9995
2 43207  56.5621  66.5276 0006868 350.4806   9.5225  1.86231211 54837
BEIDOU-3 M3 (C21)       
1 43208U 18018B   26065.17230069 -.00000035  00000+0  00000+0 0  9999
2 43208  56.5611  66.5473 0009939 319.6399  40.3037  1.86231186 54826
